OBJECT_NAME,OBJECT_ID,EPOCH,MEAN_MOTION,ECCENTRICITY,INCLINATION,RA_OF_ASC_NODE,ARG_OF_PERICENTER,MEAN_ANOMALY,EPHEMERIS_TYPE,CLASSIFICATION_TYPE,NORAD_CAT_ID,ELEMENT_SET_NO,REV_AT_EPOCH,BSTAR,MEAN_MOTION_DOT,MEAN_MOTION_DDOT
BEIDOU-2 G8 (C01),2019-027A,2026-06-06T22:42:37.175040,1.00275082,.00106411,1.6316,74.4874,284.4797,21.5509,0,U,44231,999,2597,0,-.233E-5,0
COSMOS 2534 (758),2019-030A,2026-06-06T05:17:38.691744,2.13102519,.00131614,64.3678,192.9857,275.3054,90.5914,0,U,44299,999,5469,0,.75E-6,0
BEIDOU-3 IGSO-2 (C39),2019-035A,2026-06-06T13:55:17.483808,1.00270343,.00398392,55.2446,158.9549,216.2059,208.5586,0,U,44337,999,2556,0,-.62E-6,0
GPS BIII-2  (PRN 18),2019-056A,2026-06-06T04:10:38.785728,2.00569824,.00614516,55.6435,331.5809,197.4701,157.7136,0,U,44506,999,4984,0,-.63E-6,0
BEIDOU-3 M24 (C46),2019-061A,2026-06-06T12:04:52.018176,1.86229284,.00082736,54.3959,183.0883,359.5261,0.5283,0,U,44542,999,4559,0,.88E-6,0
BEIDOU-3 M23 (C45),2019-061B,2026-06-05T03:50:47.412672,1.86227560,.00055253,54.3945,183.1018,339.5866,111.6566,0,U,44543,999,4557,0,.75E-6,0
EUTELSAT 5 WEST B (EGNOS/PRN 121),2019-067A,2026-06-06T22:00:12.369312,1.00272071,.00032455,0.0639,343.2301,93.1052,144.0540,0,U,44624,999,2433,0,-.28E-6,0
BEIDOU-3 IGSO-3 (C40),2019-073A,2026-05-16T19:27:04.075776,1.00246251,.0042953,54.8566,281.2355,189.4588,170.3676,0,U,44709,999,2414,0,-.217E-5,0
BEIDOU-3 M22 (C44),2019-078A,2026-06-05T19:20:44.288160,1.86227665,.00066301,53.9467,300.2280,49.5810,310.4674,0,U,44793,999,4443,0,-.55E-6,0
BEIDOU-3 M21 (C43),2019-078B,2026-06-06T11:35:29.344128,1.86228140,.00045259,53.9193,300.1657,47.8129,312.2176,0,U,44794,999,4445,0,-.55E-6,0
COSMOS 2544 (759),2019-088A,2026-06-05T07:08:53.172960,2.13102169,.00136933,65.5596,74.1271,259.9573,99.9093,0,U,44850,999,5046,0,-.6E-7,0
BEIDOU-3 M19 (C41),2019-090A,2026-06-06T10:56:36.782592,1.86231867,.00181153,56.5493,63.1460,297.5322,241.6390,0,U,44864,999,4403,0,-.38E-6,0
BEIDOU-3 M20 (C42),2019-090B,2026-06-06T07:44:50.540352,1.86231730,.00161406,56.5509,63.1852,310.9731,228.5055,0,U,44865,999,4401,0,-.38E-6,0
BEIDOU-3 G2 (C60),2020-017A,2026-06-06T23:02:09.710304,1.00274163,.0002631,2.8430,47.1877,26.2911,247.4740,0,U,45344,999,2315,0,-.128E-5,0
COSMOS 2545 (760),2020-018A,2026-06-05T11:49:45.715872,2.13102783,.0007849,64.3625,312.8297,231.7893,128.1339,0,U,45358,999,4841,0,-.33E-6,0
BEIDOU-3 G3 (C61),2020-040A,2026-06-06T23:05:19.840416,1.00273105,.00030088,2.4217,67.4245,337.4829,307.3783,0,U,45807,999,2196,0,-.34E-5,0
GPS BIII-3  (PRN 23),2020-041A,2026-06-06T12:23:56.548608,2.00559086,.00634877,56.6625,29.3580,204.6420,336.7508,0,U,45854,999,4382,0,-.68E-6,0
GALAXY 30 (WAAS/PRN 135),2020-056C,2026-06-06T18:00:42.509664,1.00272626,.00023131,0.0179,349.6741,84.4288,326.2293,0,U,46114,999,2118,0,.5E-6,0
COSMOS 2547 (705K),2020-075A,2026-06-05T05:06:49.888224,2.13100365,.0009155,64.5987,192.8757,239.4130,120.5675,0,U,46805,999,4365,0,.69E-6,0
GPS BIII-4  (PRN 14),2020-078A,2026-06-05T19:17:06.647424,2.00564981,.0073048,53.9813,211.2406,206.8740,155.6187,0,U,46826,999,4128,0,.41E-6,0
GPS BIII-5  (PRN 11),2021-054A,2026-06-06T23:30:49.518720,2.00569816,.00250608,55.1800,332.8705,228.6085,89.3258,0,U,48859,999,3654,0,-.62E-6,0
QZS-1R (QZSS/PRN 196),2021-096A,2026-06-06T15:47:00.831264,1.00259679,.0754231,37.4401,79.7406,271.5748,275.1259,0,U,49336,999,1690,0,-.234E-5,0
GSAT0223 (GALILEO 27),2021-116A,2026-06-05T20:12:21.690144,1.70476196,.0001178,57.1638,341.9819,182.7956,174.1817,0,U,49809,999,2798,0,-.66E-6,0
GSAT0224 (GALILEO 28),2021-116B,2026-06-06T20:02:21.618816,1.70476178,.00009049,57.1648,341.9539,146.6403,212.4208,0,U,49810,999,2802,0,-.64E-6,0
COSMOS 2557 (706K),2022-075A,2026-06-04T21:47:47.138208,2.13102273,.00101568,64.3043,314.9179,276.0496,83.8276,0,U,52984,999,3045,0,-.37E-6,0
COSMOS 2559 (707K),2022-130A,2026-06-06T03:15:13.547808,2.13101704,.00123738,64.2805,314.9582,177.2217,182.7817,0,U,54031,999,2845,0,-.32E-6,0
COSMOS 2564 (761),2022-161A,2026-06-06T10:45:20.053728,2.13102053,.00120549,64.7407,193.0683,224.2405,135.7317,0,U,54377,999,2740,0,.77E-6,0
GPS BIII-6  (PRN 28),2023-009A,2026-06-06T17:43:21.673056,2.00572244,.0006187,55.1217,148.9298,317.8929,223.9645,0,U,55268,999,2503,0,.96E-6,0
BEIDOU-3 G4 (C62),2023-066A,2026-06-06T22:41:37.271328,1.00267563,.00044283,0.4991,328.7769,169.0792,237.8995,0,U,56564,999,1129,0,-.268E-5,0
NVS-01 (IRNSS-1J),2023-076A,2026-06-06T22:38:37.557600,1.00270617,.00029198,2.1912,244.8218,41.6463,78.1402,0,U,56759,999,1101,0,-.321E-5,0
COSMOS 2569 (703K),2023-114A,2026-06-05T01:15:55.217088,2.13103796,.00111286,65.2956,73.0297,296.7426,63.1656,0,U,57517,999,2200,0,-.9E-7,0
